{
  "type": "FeatureCollection",
  "features": [
    {
      "type": "Feature",
      "properties": {
        "norad_id": 26766,
        "name": "INTELSAT 10 (IS-10)",
        "group": "intelsat",
        "lat": NaN,
        "lon": NaN,
        "alt_km": NaN,
        "timestamp": "2025-12-01T03:08:33.632245+00:00",
        "meta": {
          "OBJECT_NAME": "INTELSAT 10 (IS-10)",
          "OBJECT_ID": "2001-019A",
          "EPOCH": "2025-11-30T11:19:42.554784",
          "MEAN_MOTION": 0.99077408,
          "ECCENTRICITY": 0.0007464,
          "INCLINATION": 8.5982,
          "RA_OF_ASC_NODE": 61.2766,
          "ARG_OF_PERICENTER": 216.4434,
          "MEAN_ANOMALY": 153.2802,
          "EPHEMERIS_TYPE": 0,
          "CLASSIFICATION_TYPE": "U",
          "NORAD_CAT_ID": 26766,
          "ELEMENT_SET_NO": 999,
          "REV_AT_EPOCH": 4361,
          "BSTAR": 0,
          "MEAN_MOTION_DOT": -6.6e-07,
          "MEAN_MOTION_DDOT": 0
        }
      },
      "geometry": {
        "type": "Point",
        "coordinates": [
          NaN,
          NaN
        ]
      }
    },
    {
      "type": "Feature",
      "properties": {
        "norad_id": 26900,
        "name": "INTELSAT 902 (IS-902)",
        "group": "intelsat",
        "lat": NaN,
        "lon": NaN,
        "alt_km": NaN,
        "timestamp": "2025-12-01T03:08:33.632710+00:00",
        "meta": {
          "OBJECT_NAME": "INTELSAT 902 (IS-902)",
          "OBJECT_ID": "2001-039A",
          "EPOCH": "2025-11-24T17:12:13.636800",
          "MEAN_MOTION": 1.00269675,
          "ECCENTRICITY": 0.00045123,
          "INCLINATION": 5.6008,
          "RA_OF_ASC_NODE": 74.2814,
          "ARG_OF_PERICENTER": 170.1727,
          "MEAN_ANOMALY": 27.4183,
          "EPHEMERIS_TYPE": 0,
          "CLASSIFICATION_TYPE": "U",
          "NORAD_CAT_ID": 26900,
          "ELEMENT_SET_NO": 999,
          "REV_AT_EPOCH": 8864,
          "BSTAR": 0,
          "MEAN_MOTION_DOT": -2.64e-06,
          "MEAN_MOTION_DDOT": 0
        }
      },
      "geometry": {
        "type": "Point",
        "coordinates": [
          NaN,
          NaN
        ]
      }
    },
    {
      "type": "Feature",
      "properties": {
        "norad_id": 27380,
        "name": "INTELSAT 904 (IS-904)",
        "group": "intelsat",
        "lat": NaN,
        "lon": NaN,
        "alt_km": NaN,
        "timestamp": "2025-12-01T03:08:33.633093+00:00",
        "meta": {
          "OBJECT_NAME": "INTELSAT 904 (IS-904)",
          "OBJECT_ID": "2002-007A",
          "EPOCH": "2025-11-30T15:24:20.552256",
          "MEAN_MOTION": 1.00270158,
          "ECCENTRICITY": 0.0001381,
          "INCLINATION": 6.4221,
          "RA_OF_ASC_NODE": 71.5699,
          "ARG_OF_PERICENTER": 192.68,
          "MEAN_ANOMALY": 5.1302,
          "EPHEMERIS_TYPE": 0,
          "CLASSIFICATION_TYPE": "U",
          "NORAD_CAT_ID": 27380,
          "ELEMENT_SET_NO": 999,
          "REV_AT_EPOCH": 4977,
          "BSTAR": 0,
          "MEAN_MOTION_DOT": -2.04e-06,
          "MEAN_MOTION_DDOT": 0
        }
      },
      "geometry": {
        "type": "Point",
        "coordinates": [
          NaN,
          NaN
        ]
      }
    },
    {
      "type": "Feature",
      "properties": {
        "norad_id": 27426,
        "name": "DIRECTV 5 (TEMPO 1)",
        "group": "intelsat",
        "lat": NaN,
        "lon": NaN,
        "alt_km": NaN,
        "timestamp": "2025-12-01T03:08:33.633533+00:00",
        "meta": {
          "OBJECT_NAME": "DIRECTV 5 (TEMPO 1)",
          "OBJECT_ID": "2002-023A",
          "EPOCH": "2025-11-30T09:53:43.291104",
          "MEAN_MOTION": 1.00271178,
          "ECCENTRICITY": 0.00035367,
          "INCLINATION": 4.3678,
          "RA_OF_ASC_NODE": 77.7982,
          "ARG_OF_PERICENTER": 184.5246,
          "MEAN_ANOMALY": 205.5344,
          "EPHEMERIS_TYPE": 0,
          "CLASSIFICATION_TYPE": "U",
          "NORAD_CAT_ID": 27426,
          "ELEMENT_SET_NO": 999,
          "REV_AT_EPOCH": 8613,
          "BSTAR": 0,
          "MEAN_MOTION_DOT": -3.5e-07,
          "MEAN_MOTION_DDOT": 0
        }
      },
      "geometry": {
        "type": "Point",
        "coordinates": [
          NaN,
          NaN
        ]
      }
    },
    {
      "type": "Feature",
      "properties": {
        "norad_id": 27438,
        "name": "INTELSAT 905 (IS-905)",
        "group": "intelsat",
        "lat": NaN,
        "lon": NaN,
        "alt_km": NaN,
        "timestamp": "2025-12-01T03:08:33.633970+00:00",
        "meta": {
          "OBJECT_NAME": "INTELSAT 905 (IS-905)",
          "OBJECT_ID": "2002-027A",
          "EPOCH": "2025-11-30T11:28:41.694240",
          "MEAN_MOTION": 1.00272349,
          "ECCENTRICITY": 0.0002933,
          "INCLINATION": 6.2522,
          "RA_OF_ASC_NODE": 72.1957,
          "ARG_OF_PERICENTER": 183.5724,
          "MEAN_ANOMALY": 208.8172,
          "EPHEMERIS_TYPE": 0,
          "CLASSIFICATION_TYPE": "U",
          "NORAD_CAT_ID": 27438,
          "ELEMENT_SET_NO": 999,
          "REV_AT_EPOCH": 4937,
          "BSTAR": 0,
          "MEAN_MOTION_DOT": 1.15e-06,
          "MEAN_MOTION_DDOT": 0
        }
      },
      "geometry": {
        "type": "Point",
        "coordinates": [
          NaN,
          NaN
        ]
      }
    },
    {
      "type": "Feature",
      "properties": {
        "norad_id": 27445,
        "name": "GALAXY 3C (G-3C)",
        "group": "intelsat",
        "lat": NaN,
        "lon": NaN,
        "alt_km": NaN,
        "timestamp": "2025-12-01T03:08:33.634413+00:00",
        "meta": {
          "OBJECT_NAME": "GALAXY 3C (G-3C)",
          "OBJECT_ID": "2002-030A",
          "EPOCH": "2025-11-30T13:23:28.748832",
          "MEAN_MOTION": 1.00270698,
          "ECCENTRICITY": 0.0001341,
          "INCLINATION": 3.2312,
          "RA_OF_ASC_NODE": 80.6321,
          "ARG_OF_PERICENTER": 91.1507,
          "MEAN_ANOMALY": 3.9273,
          "EPHEMERIS_TYPE": 0,
          "CLASSIFICATION_TYPE": "U",
          "NORAD_CAT_ID": 27445,
          "ELEMENT_SET_NO": 999,
          "REV_AT_EPOCH": 4450,
          "BSTAR": 0,
          "MEAN_MOTION_DOT": -1.3e-06,
          "MEAN_MOTION_DDOT": 0
        }
      },
      "geometry": {
        "type": "Point",
        "coordinates": [
          NaN,
          NaN
        ]
      }
    },
    {
      "type": "Feature",
      "properties": {
        "norad_id": 27513,
        "name": "INTELSAT 906 (IS-906)",
        "group": "intelsat",
        "lat": NaN,
        "lon": NaN,
        "alt_km": NaN,
        "timestamp": "2025-12-01T03:08:33.634832+00:00",
        "meta": {
          "OBJECT_NAME": "INTELSAT 906 (IS-906)",
          "OBJECT_ID": "2002-041A",
          "EPOCH": "2025-11-30T19:17:09.233376",
          "MEAN_MOTION": 1.00272656,
          "ECCENTRICITY": 0.0006094,
          "INCLINATION": 5.2989,
          "RA_OF_ASC_NODE": 75.3725,
          "ARG_OF_PERICENTER": 190.1762,
          "MEAN_ANOMALY": 157.7963,
          "EPHEMERIS_TYPE": 0,
          "CLASSIFICATION_TYPE": "U",
          "NORAD_CAT_ID": 27513,
          "ELEMENT_SET_NO": 999,
          "REV_AT_EPOCH": 8503,
          "BSTAR": 0,
          "MEAN_MOTION_DOT": 3.4e-07,
          "MEAN_MOTION_DDOT": 0
        }
      },
      "geometry": {
        "type": "Point",
        "coordinates": [
          NaN,
          NaN
        ]
      }
    },
    {
      "type": "Feature",
      "properties": {
        "norad_id": 27954,
        "name": "GALAXY 13 (HORIZONS-1)",
        "group": "intelsat",
        "lat": NaN,
        "lon": NaN,
        "alt_km": NaN,
        "timestamp": "2025-12-01T03:08:33.635240+00:00",
        "meta": {
          "OBJECT_NAME": "GALAXY 13 (HORIZONS-1)",
          "OBJECT_ID": "2003-044A",
          "EPOCH": "2025-11-30T16:33:13.480704",
          "MEAN_MOTION": 1.00271307,
          "ECCENTRICITY": 0.0002104,
          "INCLINATION": 0.9044,
          "RA_OF_ASC_NODE": 86.6149,
          "ARG_OF_PERICENTER": 156.6081,
          "MEAN_ANOMALY": 284.8928,
          "EPHEMERIS_TYPE": 0,
          "CLASSIFICATION_TYPE": "U",
          "NORAD_CAT_ID": 27954,
          "ELEMENT_SET_NO": 999,
          "REV_AT_EPOCH": 4458,
          "BSTAR": 0,
          "MEAN_MOTION_DOT": 1.55e-06,
          "MEAN_MOTION_DDOT": 0
        }
      },
      "geometry": {
        "type": "Point",
        "coordinates": [
          NaN,
          NaN
        ]
      }
    }
  ]
}