INTELSAT 10 (IS-10)     
1 26766U 01019A   25334.47202031 -.00000066  00000+0  00000+0 0  9995
2 26766   8.5982  61.2766 0007464 216.4434 153.2802  0.99077408 43613
INTELSAT 902 (IS-902)   
1 26900U 01039A   25328.71682450 -.00000264  00000+0  00000+0 0  9994
2 26900   5.6008  74.2814 0004512 170.1727  27.4183  1.00269675 88648
INTELSAT 904 (IS-904)   
1 27380U 02007A   25334.64190454 -.00000204  00000+0  00000+0 0  9994
2 27380   6.4221  71.5699 0001381 192.6800   5.1302  1.00270158 49775
DIRECTV 5 (TEMPO 1)     
1 27426U 02023A   25334.41230661 -.00000035  00000+0  00000+0 0  9995
2 27426   4.3678  77.7982 0003536 184.5246 205.5344  1.00271178 86136
INTELSAT 905 (IS-905)   
1 27438U 02027A   25334.47826035  .00000115  00000+0  00000+0 0  9992
2 27438   6.2522  72.1957 0002933 183.5724 208.8172  1.00272349 49370
GALAXY 3C (G-3C)        
1 27445U 02030A   25334.55797163 -.00000130  00000+0  00000+0 0  9990
2 27445   3.2312  80.6321 0001341  91.1507   3.9273  1.00270698 44507
INTELSAT 906 (IS-906)   
1 27513U 02041A   25334.80357909  .00000034  00000+0  00000+0 0  9998
2 27513   5.2989  75.3725 0006094 190.1762 157.7963  1.00272656 85030
GALAXY 13 (HORIZONS-1)  
1 27954U 03044A   25334.68973936  .00000155  00000+0  00000+0 0  9995
2 27954   0.9044  86.6149 0002104 156.6081 284.8928  1.00271307 44587
